OBJECT_NAME,OBJECT_ID,EPOCH,MEAN_MOTION,ECCENTRICITY,INCLINATION,RA_OF_ASC_NODE,ARG_OF_PERICENTER,MEAN_ANOMALY,EPHEMERIS_TYPE,CLASSIFICATION_TYPE,NORAD_CAT_ID,ELEMENT_SET_NO,REV_AT_EPOCH,BSTAR,MEAN_MOTION_DOT,MEAN_MOTION_DDOT
STARLINK-37686,2026-127AD,2026-06-24T06:00:02.000160,15.75342458,.00012823,53.1595,226.5675,91.1253,67.6934,0,U,69470,999,378,-.1487038E-2,-.22368E-2,0
STARLINK-37451,2026-127AE,2026-06-24T06:34:00.943392,15.80909065,.00013096,53.1592,226.3124,119.4090,240.7064,0,U,69471,999,253,.43415836E-3,.85991E-3,0
DTC TEST OBJECT A,2026-128A,2026-06-23T17:17:30.318720,15.56121769,.00092205,54.9930,274.8409,313.0119,47.0144,0,U,69472,999,224,.30582005E-3,.21329E-3,0
DTC TEST OBJECT B,2026-128B,2026-06-23T11:02:19.617792,15.56628495,.00092097,55.0027,276.0190,312.7625,47.2635,0,U,69473,999,219,.36245356E-3,.25871E-3,0
TJS-25,2026-129A,2026-06-23T20:06:28.819584,1.00275236,.00024125,5.9775,330.2622,308.5958,54.9873,0,U,69474,999,14,0,-.366E-5,0
STARLINK-37816,2026-131A,2026-06-24T06:00:02.000160,15.81799183,.0001526,97.2819,195.9377,63.8250,134.9152,0,U,69478,999,314,-.64447749E-2,-.1155306E-1,0
STARLINK-37878,2026-131B,2026-06-24T06:00:02.000160,15.80893670,.00011348,97.2839,195.9241,103.4703,64.0281,0,U,69479,999,202,-.82459702E-3,-.155855E-2,0
STARLINK-37817,2026-131C,2026-06-24T06:00:02.000160,15.82070826,.00010929,97.2817,195.9412,92.9871,114.0695,0,U,69480,999,314,-.76923944E-2,-.1366116E-1,0
STARLINK-37727,2026-131D,2026-06-24T06:00:02.000160,15.81950400,.00014793,97.2815,195.9418,78.4396,132.8501,0,U,69481,999,314,-.61662133E-2,-.1117415E-1,0
STARLINK-37814,2026-131E,2026-06-24T06:00:02.000160,15.82036995,.00013578,97.2818,195.9444,80.4148,134.9939,0,U,69482,999,314,-.59994173E-2,-.1075275E-1,0
STARLINK-37869,2026-131F,2026-06-24T06:00:02.000160,15.82071837,.00013079,97.2822,195.9462,79.3982,140.2286,0,U,69483,999,314,-.59845331E-2,-.1074439E-1,0
STARLINK-37873,2026-131G,2026-06-24T06:00:02.000160,15.82160467,.00013657,97.2817,195.9482,85.1164,138.6410,0,U,69484,999,314,-.61623232E-2,-.1126624E-1,0
STARLINK-37892,2026-131H,2026-06-24T06:00:02.000160,15.82279180,.00012663,97.2816,195.9489,85.0932,142.6487,0,U,69485,999,314,-.59952201E-2,-.1085393E-1,0
STARLINK-37893,2026-131J,2026-06-24T06:00:02.000160,15.82341393,.00013006,97.2817,195.9505,82.8187,149.0589,0,U,69486,999,322,-.59598726E-2,-.1082544E-1,0
STARLINK-37842,2026-131K,2026-06-24T06:00:02.000160,15.82409870,.00013966,97.2815,195.9534,79.9511,156.0383,0,U,69487,999,314,-.59114978E-2,-.1077882E-1,0
STARLINK-37449,2026-131L,2026-06-24T06:00:02.000160,15.82507204,.00013726,97.2815,195.9539,82.2806,157.8318,0,U,69488,999,323,-.63319406E-2,-.1171328E-1,0
STARLINK-37831,2026-131M,2026-06-24T06:00:02.000160,15.82557818,.00013759,97.2813,195.9552,81.8294,162.4523,0,U,69489,999,180,-.63685964E-2,-.1179895E-1,0
STARLINK-37879,2026-131N,2026-06-24T06:00:02.000160,15.82646586,.00012859,97.2812,195.9574,81.2422,167.0907,0,U,69490,999,314,-.63383803E-2,-.1179233E-1,0
STARLINK-37856,2026-131P,2026-06-24T06:00:02.000160,15.80887561,.00012269,97.2833,195.9409,100.4139,106.7759,0,U,69491,999,320,-.70016303E-3,-.132672E-2,0
STARLINK-37568,2026-131Q,2026-06-24T06:00:02.000160,15.82798813,.00012812,97.2817,195.9606,84.4626,172.0441,0,U,69492,999,323,-.63882327E-2,-.1195129E-1,0
STARLINK-37855,2026-131R,2026-06-24T06:00:02.000160,15.80850066,.00009794,97.2833,195.9475,92.8429,131.4130,0,U,69493,999,320,-.51830606E-3,-.9846E-3,0
STARLINK-37854,2026-131S,2026-06-24T06:00:02.000160,15.81026439,.00012621,97.2831,195.9450,77.2172,140.3754,0,U,69494,999,320,-.21229605E-2,-.392816E-2,0
STARLINK-37789,2026-131T,2026-06-24T06:00:02.000160,15.82935434,.0001278,97.2814,195.9653,84.9475,184.0953,0,U,69495,999,322,-.66095137E-2,-.1238976E-1,0
STARLINK-37839,2026-131U,2026-06-24T06:00:02.000160,15.80883362,.00012262,97.2834,195.9511,103.8977,127.5865,0,U,69496,999,320,-.70724149E-3,-.133966E-2,0
STARLINK-37798,2026-131V,2026-06-24T06:00:02.000160,15.83053204,.00012363,97.2816,195.9673,88.0393,184.9168,0,U,69497,999,320,-.65447386E-2,-.1234246E-1,0
STARLINK-37853,2026-131W,2026-06-24T06:00:02.000160,15.83554581,.00012097,97.2818,195.9760,88.2544,204.3631,0,U,69498,999,320,-.63766998E-2,-.123176E-1,0
STARLINK-37849,2026-131X,2026-06-24T06:00:02.000160,15.83426859,.00012403,97.2816,195.9740,84.6478,204.1823,0,U,69499,999,322,-.64486132E-2,-.1237427E-1,0
STARLINK-37835,2026-131Y,2026-06-24T06:00:02.000160,15.83210449,.00012687,97.2819,195.9709,83.4130,197.6239,0,U,69500,999,213,-.65611473E-2,-.1245204E-1,0
STARLINK-37843,2026-131Z,2026-06-24T06:00:02.000160,15.83320700,.00012198,97.2816,195.9728,90.0560,194.8810,0,U,69501,999,320,-.65084264E-2,-.1242036E-1,0
2026-132A,2026-132A,2026-06-24T03:56:03.971904,14.99054381,.00130263,97.6891,238.7478,244.1776,115.8104,0,U,69502,999,182,.78639619E-4,.896E-5,0
2026-132B,2026-132B,2026-06-24T03:55:01.357824,14.99141113,.00129254,97.6922,238.7535,246.3243,113.6623,0,U,69503,999,182,.55784358E-4,.62E-5,0
BRO-22,2026-132C,2026-06-24T03:47:46.674240,14.99763892,.00145133,97.6859,238.7488,258.2047,101.7548,0,U,69504,999,182,.45768217E-4,.507E-5,0
2026-132D,2026-132D,2026-06-24T03:19:09.168384,15.03851593,.0017027,97.6864,238.7644,266.1335,93.7944,0,U,69505,999,182,.18752529E-3,.2526E-4,0
VERTECS,2026-132E,2026-06-24T05:10:45.799968,15.00901731,.00130926,97.6891,238.8341,280.0860,79.8887,0,U,69506,999,182,.15148976E-3,.1871E-4,0
2026-132F,2026-132F,2026-06-23T09:50:13.742592,15.02397057,.00147447,97.6834,238.0364,276.7012,83.2535,0,U,69507,999,170,.31064753E-4,.351E-5,0
STARLINK-37536,2026-133A,2026-06-24T06:00:02.000160,15.84355220,.00008672,53.1584,286.7244,71.3812,286.8116,0,U,69508,999,310,-.82639025E-2,-.1671515E-1,0
STARLINK-37341,2026-133B,2026-06-24T06:00:02.000160,15.84421917,.00008519,53.1584,286.7053,91.2893,276.2470,0,U,69509,999,310,-.5266551E-2,-.1085242E-1,0
STARLINK-36536,2026-133C,2026-06-24T06:00:02.000160,15.84961600,.00010289,53.1582,286.6833,80.6164,297.5270,0,U,69510,999,304,-.21178448E-2,-.480752E-2,0
STARLINK-37420,2026-133D,2026-06-24T06:00:02.000160,15.85988547,.00008274,53.1577,286.6345,75.7866,325.7121,0,U,69511,999,299,-.84751681E-2,-.1870481E-1,0
STARLINK-37511,2026-133E,2026-06-24T06:00:02.000160,15.85525732,.00006868,53.1583,286.6586,80.4078,309.7346,0,U,69512,999,299,-.82754053E-2,-.175771E-1,0
STARLINK-37552,2026-133F,2026-06-24T06:00:02.000160,15.86095886,.00006977,53.1577,286.6137,80.1129,331.6783,0,U,69513,999,299,-.49313461E-2,-.1100567E-1,0
STARLINK-37607,2026-133G,2026-06-24T06:00:02.000160,15.86480655,.00010019,53.1578,286.5969,68.1575,351.4522,0,U,69514,999,299,-.61733801E-2,-.1390377E-1,0
STARLINK-37232,2026-133H,2026-06-24T06:00:02.000160,15.86889658,.00011253,53.1574,286.5759,69.9035,359.9721,0,U,69515,999,299,-.19406691E-2,-.483892E-2,0
STARLINK-37323,2026-133J,2026-06-24T06:00:02.000160,15.87371815,.00008634,53.1575,286.5548,81.9461,357.8847,0,U,69516,999,299,-.70747051E-2,-.1661616E-1,0
STARLINK-37357,2026-133K,2026-06-24T06:00:02.000160,15.87492345,.00009885,53.1573,286.5401,73.5276,13.3142,0,U,69517,999,299,-.19978606E-2,-.511605E-2,0
STARLINK-37408,2026-133L,2026-06-24T06:00:02.000160,15.87940162,.00009188,53.1572,286.5206,79.1934,16.9928,0,U,69518,999,299,-.68390956E-2,-.1653961E-1,0
STARLINK-37570,2026-133M,2026-06-24T06:00:02.000160,15.88825782,.00008858,53.1571,286.4728,82.3949,36.7276,0,U,69519,999,299,-.71557149E-2,-.1787735E-1,0
STARLINK-37510,2026-133N,2026-06-24T06:00:02.000160,15.88406464,.00010241,53.1567,286.4969,62.9165,44.8958,0,U,69520,999,299,-.74326918E-2,-.1813545E-1,0
STARLINK-37586,2026-133P,2026-06-24T06:00:02.000160,15.89474862,.00010543,53.1566,286.4359,74.6271,62.3071,0,U,69521,999,300,-.6684936E-2,-.1735071E-1,0
STARLINK-37379,2026-133Q,2026-06-24T06:00:02.000160,15.89740334,.00009345,53.1567,286.4199,83.5013,60.9537,0,U,69522,999,304,-.61743063E-2,-.1638583E-1,0
STARLINK-37429,2026-133R,2026-06-24T06:00:02.000160,15.89992505,.00011025,53.1565,286.4045,70.7446,81.0453,0,U,69523,999,304,-.61204505E-2,-.1644763E-1,0
STARLINK-37352,2026-133S,2026-06-24T06:00:02.000160,15.90431272,.00010505,53.1564,286.3810,68.8326,94.2788,0,U,69524,999,304,-.59317651E-2,-.1632323E-1,0
STARLINK-37490,2026-133T,2026-06-24T06:00:02.000160,15.91188086,.00008784,53.1560,286.3348,72.5182,112.7110,0,U,69525,999,304,-.15137887E-2,-.496731E-2,.88077828E-4
STARLINK-37438,2026-133U,2026-06-24T06:00:02.000160,15.90804088,.00010175,53.1563,286.3614,77.7029,95.1529,0,U,69526,999,304,-.58126793E-2,-.1845273E-1,.9256885E-3
STARLINK-37484,2026-133V,2026-06-24T06:00:02.000160,15.91632850,.00009033,53.1560,286.3142,82.5348,112.5445,0,U,69527,999,305,-.55026094E-2,-.182314E-1,.91263035E-3
STARLINK-37523,2026-133W,2026-06-24T06:00:02.000160,15.91919344,.00009776,53.1561,286.2977,77.7126,125.2796,0,U,69528,999,305,-.54316208E-2,-.1826456E-1,.91829482E-3
STARLINK-37369,2026-133X,2026-06-24T06:00:02.000160,15.92221529,.0001003,53.1556,286.2804,82.9648,128.2291,0,U,69529,999,305,-.53408666E-2,-.1824364E-1,.91909779E-3
STARLINK-37670,2026-133Y,2026-06-24T06:00:02.000160,15.92822496,.00009507,53.1556,286.2510,78.3754,147.1237,0,U,69530,999,305,-.51256942E-2,-.1806864E-1,.90827459E-3
STARLINK-37897,2026-133Z,2026-06-24T06:00:02.000160,15.93226357,.00009136,53.1554,286.2268,75.6402,161.0852,0,U,69531,999,300,-.50117977E-2,-.1804587E-1,.90983658E-3
STARLINK-37933,2026-133AA,2026-06-24T06:00:02.000160,15.93971418,.00008553,53.1554,286.1957,65.6574,185.8009,0,U,69532,999,300,-.31933111E-2,-.1202167E-1,.4357668E-3
STARLINK-37890,2026-133AB,2026-06-24T06:00:02.000160,15.94214497,.00008218,53.1555,286.1766,77.8535,182.7373,0,U,69533,999,300,-.55113275E-2,-.2086936E-1,.1205437E-2
STARLINK-37407,2026-133AC,2026-06-24T06:00:02.000160,15.94568470,.00009496,53.1552,286.1490,68.6658,204.8410,0,U,69534,999,305,-.11310556E-2,-.443729E-2,.75313733E-4
